$$SOE
2461302.500000000, A.D. 2026-Sep-19 00:00:00.0000, -1.042458538767740E+08, 4.473227509558939E+08, 1.285931042806718E+08,
2461309.500000000, A.D. 2026-Sep-26 00:00:00.0000, -1.139407182500447E+08, 4.445714541736407E+08, 1.277535505528194E+08,
2461316.500000000, A.D. 2026-Oct-03 00:00:00.0000, -1.235845968941026E+08, 4.416205770685394E+08, 1.268565759704112E+08,
2461323.500000000, A.D. 2026-Oct-10 00:00:00.0000, -1.331729607655334E+08, 4.384707172137908E+08, 1.259023734389908E+08,
2461330.500000000, A.D. 2026-Oct-17 00:00:00.0000, -1.427012730500436E+08, 4.351225691195432E+08, 1.248911639060849E+08,
2461337.500000000, A.D. 2026-Oct-24 00:00:00.0000, -1.521649914874501E+08, 4.315769252719362E+08, 1.238231966595941E+08,
2461344.500000000, A.D. 2026-Oct-31 00:00:00.0000, -1.615595706750329E+08, 4.278346769650594E+08, 1.226987495914614E+08,
2461351.500000000, A.D. 2026-Nov-07 00:00:00.0000, -1.708804640100809E+08, 4.238968149965534E+08, 1.215181294008689E+08,
2461358.500000000, A.D. 2026-Nov-14 00:00:00.0000, -1.801231250708709E+08, 4.197644311111743E+08, 1.202816717905848E+08,
2461365.500000000, A.D. 2026-Nov-21 00:00:00.0000, -1.892830102477449E+08, 4.154387208722380E+08, 1.189897418782870E+08,
2461372.500000000, A.D. 2026-Nov-28 00:00:00.0000, -1.983555836202547E+08, 4.109209849503403E+08, 1.176427346679423E+08,
2461379.500000000, A.D. 2026-Dec-05 00:00:00.0000, -2.073363204587710E+08, 4.062126281675628E+08, 1.162410751940700E+08,
2461386.500000000, A.D. 2026-Dec-12 00:00:00.0000, -2.162207091856326E+08, 4.013151594045885E+08, 1.147852185774982E+08,
2461393.500000000, A.D. 2026-Dec-19 00:00:00.0000, -2.250042536811865E+08, 3.962301923751771E+08, 1.132756501657426E+08,
2461400.500000000, A.D. 2026-Dec-26 00:00:00.0000, -2.336824760738856E+08, 3.909594463956814E+08, 1.117128856985352E+08,
2461407.500000000, A.D. 2027-Jan-02 00:00:00.0000, -2.422509197364288E+08, 3.855047469530994E+08, 1.100974714558497E+08,
2461414.500000000, A.D. 2027-Jan-09 00:00:00.0000, -2.507051523701676E+08, 3.798680260866004E+08, 1.084299843781022E+08,
2461421.500000000, A.D. 2027-Jan-16 00:00:00.0000, -2.590407691423832E+08, 3.740513225872113E+08, 1.067110321553233E+08,
2461428.500000000, A.D. 2027-Jan-23 00:00:00.0000, -2.672533958302474E+08, 3.680567819729242E+08, 1.049412532773746E+08,
2461435.500000000, A.D. 2027-Jan-30 00:00:00.0000, -2.753386917827787E+08, 3.618866561886257E+08, 1.031213170233424E+08,
2461442.500000000, A.D. 2027-Feb-06 00:00:00.0000, -2.832923522744822E+08, 3.555433033675619E+08, 1.012519233777575E+08,
2461449.500000000, A.D. 2027-Feb-13 00:00:00.0000, -2.911101107096282E+08, 3.490291888704044E+08, 9.933380301424423E+07,
2461456.500000000, A.D. 2027-Feb-20 00:00:00.0000, -2.987877430397928E+08, 3.423468868083315E+08, 9.736771749777511E+07,
2461463.500000000, A.D. 2027-Feb-27 00:00:00.0000, -3.063210729949763E+08, 3.354990788335816E+08, 9.535445931345759E+07,
2461470.500000000, A.D. 2027-Mar-06 00:00:00.0000, -3.137059751059377E+08, 3.284885521144842E+08, 9.329485160029419E+07,
2461477.500000000, A.D. 2027-Mar-13 00:00:00.0000, -3.209383771163503E+08, 3.213181985408469E+08, 9.118974790345296E+07,
2461484.500000000, A.D. 2027-Mar-20 00:00:00.0000, -3.280142629113612E+08, 3.139910143240248E+08, 8.904003198002745E+07,
2461491.500000000, A.D. 2027-Mar-27 00:00:00.0000, -3.349296757557789E+08, 3.065100994409381E+08, 8.684661759396097E+07,
2461498.500000000, A.D. 2027-Apr-03 00:00:00.0000, -3.416807216339763E+08, 2.988786568718517E+08, 8.461044827655202E+07,
2461505.500000000, A.D. 2027-Apr-10 00:00:00.0000, -3.482635726253250E+08, 2.910999916526566E+08, 8.233249704783985E+07,
2461512.500000000, A.D. 2027-Apr-17 00:00:00.0000, -3.546744702880476E+08, 2.831775097252934E+08, 8.001376609482154E+07,
2461519.500000000, A.D. 2027-Apr-24 00:00:00.0000, -3.609097289670511E+08, 2.751147165223531E+08, 7.765528639340056E+07,
2461526.500000000, A.D. 2027-May-01 00:00:00.0000, -3.669657387206436E+08, 2.669152153120334E+08, 7.525811724820668E+07,
2461533.500000000, A.D. 2027-May-08 00:00:00.0000, -3.728389675531719E+08, 2.585827060502687E+08, 7.282334578271794E+07,
2461540.500000000, A.D. 2027-May-15 00:00:00.0000, -3.785259644456097E+08, 2.501209856923206E+08, 7.035208659464899E+07,
2461547.500000000, A.D. 2027-May-22 00:00:00.0000, -3.840233647435688E+08, 2.415339473728350E+08, 6.784548150836526E+07,
2461554.500000000, A.D. 2027-May-29 00:00:00.0000, -3.893278945396245E+08, 2.328255769869543E+08, 6.530469899638288E+07,
2461561.500000000, A.D. 2027-Jun-05 00:00:00.0000, -3.944363731570598E+08, 2.239999503024936E+08, 6.273093344434610E+07,
2461568.500000000, A.D. 2027-Jun-12 00:00:00.0000, -3.993457157377266E+08, 2.150612310342584E+08, 6.012540447926892E+07,
2461575.500000000, A.D. 2027-Jun-19 00:00:00.0000, -4.040529362602327E+08, 2.060136689472126E+08, 5.748935631573286E+07,
2461582.500000000, A.D. 2027-Jun-26 00:00:00.0000, -4.085551507026524E+08, 1.968615977289224E+08, 5.482405707370093E+07,
2461589.500000000, A.D. 2027-Jul-03 00:00:00.0000, -4.128495802109423E+08, 1.876094326409384E+08, 5.213079805721465E+07,
2461596.500000000, A.D. 2027-Jul-10 00:00:00.0000, -4.169335542297703E+08, 1.782616679593681E+08, 4.941089299219633E+07,
2461603.500000000, A.D. 2027-Jul-17 00:00:00.0000, -4.208045135531278E+08, 1.688228741676880E+08, 4.666567721790658E+07,
2461610.500000000, A.D. 2027-Jul-24 00:00:00.0000, -4.244600131321125E+08, 1.592976948412912E+08, 4.389650681375454E+07,
2461617.500000000, A.D. 2027-Jul-31 00:00:00.0000, -4.278977242222316E+08, 1.496908434619269E+08, 4.110475764422693E+07,
2461624.500000000, A.D. 2027-Aug-07 00:00:00.0000, -4.311154360648238E+08, 1.400071013165777E+08, 3.829182443574073E+07,
2461631.500000000, A.D. 2027-Aug-14 00:00:00.0000, -4.341110593986024E+08, 1.302513162307903E+08, 3.545912007707239E+07,
2461638.500000000, A.D. 2027-Aug-21 00:00:00.0000, -4.368826311784560E+08, 1.204283987775217E+08, 3.260807481303781E+07,
2461645.500000000, A.D. 2027-Aug-28 00:00:00.0000, -4.394283170621560E+08, 1.105433171705732E+08, 2.974013511614490E+07,
2461652.500000000, A.D. 2027-Sep-04 00:00:00.0000, -4.417464128358807E+08, 1.006010933479348E+08, 2.685676254995828E+07,
2461659.500000000, A.D. 2027-Sep-11 00:00:00.0000, -4.438353461668084E+08, 9.060679958561617E+07, 2.395943269928977E+07,
2461666.500000000, A.D. 2027-Sep-18 00:00:00.0000, -4.456936785448723E+08, 8.056555499488422E+07, 2.104963410336940E+07,
2461673.500000000, A.D. 2027-Sep-25 00:00:00.0000, -4.473201071810061E+08, 7.048252182938372E+07, 1.812886716629909E+07,
2461680.500000000, A.D. 2027-Oct-02 00:00:00.0000, -4.487134667838625E+08, 6.036290163490425E+07, 1.519864304177401E+07,
2461687.500000000, A.D. 2027-Oct-09 00:00:00.0000, -4.498727311897085E+08, 5.021193124371438E+07, 1.226048249114735E+07,
2461694.500000000, A.D. 2027-Oct-16 00:00:00.0000, -4.507970147788809E+08, 4.003487856568389E+07, 9.315914705978144E+06,
2461701.500000000, A.D. 2027-Oct-23 00:00:00.0000, -4.514855734147868E+08, 2.983703817761838E+07, 6.366476072188757E+06,
2461708.500000000, A.D. 2027-Oct-30 00:00:00.0000, -4.519378045261776E+08, 1.962372732790432E+07, 3.413708892873610E+06,
2461715.500000000, A.D. 2027-Nov-06 00:00:00.0000, -4.521532474917726E+08, 9.400283490744473E+06, 4.591602703012750E+05,
2461722.500000000, A.D. 2027-Nov-13 00:00:00.0000, -4.521315863101303E+08, -8.279386004954862E+05, -2.495618838811941E+06,
2461729.500000000, A.D. 2027-Nov-20 00:00:00.0000, -4.518726516519805E+08, -1.105557261971166E+07, -5.449074837813100E+06,
2461736.500000000, A.D. 2027-Nov-27 00:00:00.0000, -4.513764206744739E+08, -2.127724604172878E+07, -8.399652878487121E+06,
2461743.500000000, A.D. 2027-Dec-04 00:00:00.0000, -4.506430166169237E+08, -3.148758434275092E+07, -1.134579816089022E+07,
2461750.500000000, A.D. 2027-Dec-11 00:00:00.0000, -4.496727087272255E+08, -4.168121496590689E+07, -1.428595717095478E+07,
2461757.500000000, A.D. 2027-Dec-18 00:00:00.0000, -4.484659122443177E+08, -5.185277138429926E+07, -1.721857890687151E+07,
2461764.500000000, A.D. 2027-Dec-25 00:00:00.0000, -4.470231882848849E+08, -6.199689725622805E+07, -2.014211610634607E+07,
2461771.500000000, A.D. 2028-Jan-01 00:00:00.0000, -4.453452435928406E+08, -7.210825065053515E+07, -2.305502647523574E+07,
$$EOE